[{"OBJECT_NAME":"ONEWEB-0363","OBJECT_ID":"2021-090L","EPOCH":"2026-03-09T16:42:11.174688","MEAN_MOTION":13.20772586,"ECCENTRICITY":0.00013054,"INCLINATION":87.9172,"RA_OF_ASC_NODE":294.3049,"ARG_OF_PERICENTER":77.0423,"MEAN_ANOMALY":283.0856,"EPHEMERIS_TYPE":0,"CLASSIFICATION_TYPE":"U","NORAD_CAT_ID":49289,"ELEMENT_SET_NO":999,"REV_AT_EPOCH":21717,"BSTAR":-0.00061887563,"MEAN_MOTION_DOT":-2.39e-6,"MEAN_MOTION_DDOT":0},{"OBJECT_NAME":"OBJECT B","OBJECT_ID":"2022-056B","EPOCH":"2026-03-09T22:39:35.138880","MEAN_MOTION":13.29579463,"ECCENTRICITY":0.00429696,"INCLINATION":86.011,"RA_OF_ASC_NODE":137.4743,"ARG_OF_PERICENTER":311.6914,"MEAN_ANOMALY":48.0548,"EPHEMERIS_TYPE":0,"CLASSIFICATION_TYPE":"U","NORAD_CAT_ID":52717,"ELEMENT_SET_NO":999,"REV_AT_EPOCH":18512,"BSTAR":-0.00081071563,"MEAN_MOTION_DOT":-3.63e-6,"MEAN_MOTION_DDOT":0}]
